      2.10          N: GNSS NAV DATA                        RINEX VERSION / TYPE
fic2rin                                 08/04/2018 00:06:29 PGM / RUN BY / DATE
                                                            END OF HEADER
24 18  8  3 22  0  0.0-5.346955731511e-05-4.547473508865e-13 0.000000000000e+00
    1.100000000000e+02 5.890625000000e+01 4.955920719705e-09-1.758411888296e+00
    3.127381205559e-06 7.052394095808e-03 6.323680281639e-06 5.153635969162e+03
    5.112000000000e+05-3.725290298462e-09-7.849382980251e-01-1.154839992523e-07
    9.409066741397e-01 2.488437500000e+02 5.359193439004e-01-8.278201963197e-09
    6.071681481333e-11 1.000000000000e+00 2.012000000000e+03 0.000000000000e+00
    3.400000000000e+00 0.000000000000e+00 2.793967723846e-09 1.100000000000e+02
    5.040060000000e+05 4.000000000000e+00
23 18  8  3 22  0  0.0-2.134288661182e-04 6.821210263297e-13 0.000000000000e+00
    6.200000000000e+01 1.581250000000e+01 4.825200988989e-09-1.263637002730e+00
    7.562339305878e-07 1.265683746897e-02 1.068413257599e-05 5.153759191513e+03
    5.112000000000e+05 3.054738044739e-07-1.804067128717e+00 3.539025783539e-08
    9.432197963191e-01 1.610312500000e+02-2.337472711224e+00-8.092479941415e-09
   -1.492919328940e-10 1.000000000000e+00 2.012000000000e+03 0.000000000000e+00
    2.400000000000e+00 0.000000000000e+00-2.002343535423e-08 6.200000000000e+01
    5.040060000000e+05 4.000000000000e+00
19 18  8  3 22  0  0.0-4.148529842496e-04 3.183231456205e-12 0.000000000000e+00
    7.700000000000e+01-1.581250000000e+01 3.943735700993e-09 2.888523277217e+00
   -9.052455425262e-07 9.829935152084e-03 8.890405297279e-06 5.153724399567e+03
    5.112000000000e+05 6.891787052155e-08 1.450261010061e+00-1.080334186554e-07
    9.804374431320e-01 2.186562500000e+02 1.249925342213e+00-7.639961092188e-09
    1.710785546799e-10 1.000000000000e+00 2.012000000000e+03 0.000000000000e+00
    2.400000000000e+00 0.000000000000e+00-1.536682248116e-08 7.700000000000e+01
    5.040060000000e+05 4.000000000000e+00
21 18  8  3 22  0  0.0-3.579310141504e-04 5.570655048359e-12 0.000000000000e+00
    7.800000000000e+01 1.128125000000e+01 4.999493963277e-09 2.411444299317e+00
    4.116445779800e-07 2.433261857368e-02 5.681067705154e-06 5.153656051636e+03
    5.112000000000e+05 3.166496753693e-07 2.349357175356e+00-9.685754776001e-08
    9.447399159582e-01 2.590937500000e+02-1.538798989040e+00-7.982832517017e-09
    2.353669468352e-10 1.000000000000e+00 2.012000000000e+03 0.000000000000e+00
    2.400000000000e+00 0.000000000000e+00-1.024454832077e-08 7.800000000000e+01
    5.040060000000e+05 4.000000000000e+00
26 18  8  3 22  0  0.0-6.294623017311e-05 1.193711796077e-11 0.000000000000e+00
    8.600000000000e+01-2.415625000000e+01 4.682695053045e-09 1.976717807762e+00
   -1.244246959686e-06 2.810002071783e-03 5.790963768959e-06 5.153697635651e+03
    5.112000000000e+05-5.587935447693e-08 2.858429545521e-01 4.842877388000e-08
    9.553194747193e-01 2.645312500000e+02 9.551707983549e-02-8.311774790211e-09
   -2.475103097979e-10 1.000000000000e+00 2.012000000000e+03 0.000000000000e+00
    2.400000000000e+00 0.000000000000e+00 7.450580596924e-09 8.600000000000e+01
    5.040060000000e+05 4.000000000000e+00
16 18  8  3 22  0  0.0 1.509534195065e-05-1.591615728103e-12 0.000000000000e+00
    5.600000000000e+01-2.609375000000e+01 3.931592338030e-09 1.059535292206e+00
   -1.238659024239e-06 9.971334366128e-03 6.698071956635e-06 5.153673254013e+03
    5.112000000000e+05-1.229345798492e-07 3.884852295577e-01 1.192092895508e-07
    9.866403635429e-01 2.649062500000e+02 5.230599077732e-01-7.990332829435e-09
   -3.543004723225e-10 1.000000000000e+00 2.012000000000e+03 0.000000000000e+00
    2.400000000000e+00 0.000000000000e+00-1.071020960808e-08 5.600000000000e+01
    5.040060000000e+05 4.000000000000e+00
15 18  8  3 22  0  0.0-3.493363037705e-04 7.958078640513e-13 0.000000000000e+00
    1.560000000000e+02 6.500000000000e+00 5.256290374164e-09-8.000655526845e-01
    3.147870302200e-07 1.043831382412e-02 9.538605809212e-06 5.153790513992e+03
    5.112000000000e+05 1.620501279831e-07-1.874272909664e+00 2.123415470123e-07
    9.279702680407e-01 1.784687500000e+02 6.925944659795e-01-8.428565369293e-09
   -2.092944322389e-10 1.000000000000e+00 2.012000000000e+03 0.000000000000e+00
    2.400000000000e+00 0.000000000000e+00-1.071020960808e-08 1.560000000000e+02
    5.040060000000e+05 4.000000000000e+00
17 18  8  3 22  0  0.0-7.122382521629e-05 4.092726157978e-12 0.000000000000e+00
    8.800000000000e+01-1.246875000000e+01 3.985880313628e-09 5.915014182940e-02
   -8.046627044678e-07 1.242814050056e-02 9.015202522278e-06 5.153595306396e+03
    5.112000000000e+05-2.179294824600e-07 1.403396856564e+00 7.823109626770e-08
    9.828737210699e-01 2.214687500000e+02-1.776950833226e+00-8.001761876929e-09
    1.575065607805e-10 1.000000000000e+00 2.012000000000e+03 0.000000000000e+00
    2.400000000000e+00 0.000000000000e+00-1.117587089539e-08 8.800000000000e+01
    5.040060000000e+05 4.000000000000e+00
18 18  8  3 22  0  0.0 4.148902371526e-05 4.433786671143e-12 0.000000000000e+00
    8.700000000000e+01 8.000000000000e+00 4.966278293997e-09-2.331780605233e+00
    3.594905138016e-07 1.488537830301e-02 5.980953574181e-06 5.153635976791e+03
    5.112000000000e+05 2.272427082062e-07 2.356847124280e+00 2.793967723846e-08
    9.504817260533e-01 2.537187500000e+02 1.330367316030e+00-8.135338869518e-09
    5.046638784191e-10 1.000000000000e+00 2.012000000000e+03 0.000000000000e+00
    2.400000000000e+00 0.000000000000e+00-6.519258022308e-09 8.700000000000e+01
    5.040060000000e+05 4.000000000000e+00
31 18  8  3 22  0  0.0 1.031630672514e-04-2.614797267597e-12 0.000000000000e+00
    6.800000000000e+01 6.306250000000e+01 4.591976988559e-09-2.934412085676e+00
    3.196299076080e-06 8.782688761130e-03 6.027519702911e-06 5.153709640503e+03
    5.112000000000e+05-5.029141902924e-08-7.112490750646e-01 2.048909664154e-08
    9.625015847173e-01 2.670000000000e+02-1.222890175770e-01-8.139624762329e-09
    5.678807973718e-11 1.000000000000e+00 2.012000000000e+03 0.000000000000e+00
    2.400000000000e+00 0.000000000000e+00-1.350417733192e-08 6.800000000000e+01
    5.040060000000e+05 4.000000000000e+00
29 18  8  3 22  0  0.0 4.026894457638e-04-7.048583938740e-12 0.000000000000e+00
    8.000000000000e+01 1.812500000000e+00 3.863018053065e-09 8.026150707222e-01
   -5.401670932770e-08 8.440682431683e-04 9.143725037575e-06 5.153654916763e+03
    5.112000000000e+05 1.862645149231e-09 1.414098816217e+00-5.587935447693e-09
    9.841845307790e-01 2.125000000000e+02 1.461204219535e+00-7.776752504386e-09
    1.685784505406e-10 1.000000000000e+00 2.012000000000e+03 0.000000000000e+00
    2.400000000000e+00 0.000000000000e+00-1.024454832077e-08 8.000000000000e+01
    5.040060000000e+05 4.000000000000e+00
20 18  8  3 22  0  0.0 5.135401152074e-04 6.821210263297e-13 0.000000000000e+00
    7.900000000000e+01-4.509375000000e+01 5.554874239952e-09-2.199820452746e+00
   -2.175569534302e-06 4.078512894921e-03 6.522983312607e-06 5.153668401718e+03
    5.112000000000e+05-5.029141902924e-08-2.946884976422e+00 7.264316082001e-08
    9.291055392836e-01 2.369687500000e+02 2.067171894898e+00-8.517497645108e-09
   -1.178620522847e-10 1.000000000000e+00 2.012000000000e+03 0.000000000000e+00
    2.400000000000e+00 0.000000000000e+00-8.381903171539e-09 7.900000000000e+01
    5.040060000000e+05 4.000000000000e+00
28 18  8  3 22  0  0.0 7.358365692198e-04 2.614797267597e-12 0.000000000000e+00
    7.900000000000e+01-2.431250000000e+01 4.053025967657e-09 1.002842902489e+00
   -1.473352313042e-06 1.947451615706e-02 6.433576345444e-06 5.153684783936e+03
    5.112000000000e+05-2.048909664154e-07 3.926746012276e-01-2.793967723846e-07
    9.855245725171e-01 2.721250000000e+02-1.516915873361e+00-8.243914820714e-09
   -2.435815747217e-10 1.000000000000e+00 2.012000000000e+03 0.000000000000e+00
    4.850000000000e+00 0.000000000000e+00-1.117587089539e-08 7.900000000000e+01
    5.040060000000e+05 4.000000000000e+00
22 18  8  3 21 59 44.0-4.782686010003e-04-1.170974428533e-11 0.000000000000e+00
    1.300000000000e+01-4.671875000000e+01 5.720595428619e-09-6.347392904564e-01
   -2.421438694000e-06 7.222318905406e-03 6.813555955887e-06 5.153747571945e+03
    5.111840000000e+05-9.313225746155e-08-2.897241560917e+00-1.490116119385e-08
    9.258306113726e-01 2.291562500000e+02-1.501339884672e+00-8.813224249023e-09
   -1.321483616526e-10 1.000000000000e+00 2.012000000000e+03 0.000000000000e+00
    2.400000000000e+00 0.000000000000e+00-1.816079020500e-08 1.300000000000e+01
    5.097660000000e+05 4.000000000000e+00
22 18  8  3 23 59 44.0-4.783528856933e-04-1.170974428533e-11 0.000000000000e+00
    1.400000000000e+01-4.775000000000e+01 5.794169921863e-09 4.153891473796e-01
   -2.468004822731e-06 7.221600622870e-03 6.752088665962e-06 5.153746177673e+03
    5.183840000000e+05-7.823109626770e-08-2.897305178836e+00 1.862645149231e-09
    9.258297526397e-01 2.341562500000e+02-1.501323099150e+00-8.818581615036e-09
   -1.089331089298e-10 1.000000000000e+00 2.012000000000e+03 0.000000000000e+00
    2.400000000000e+00 0.000000000000e+00-1.816079020500e-08 1.400000000000e+01
    5.112060000000e+05 4.000000000000e+00
 1 18  8  4  0  0  0.0-7.261848077178e-05-3.979039320257e-12 0.000000000000e+00
    1.500000000000e+01 6.125000000000e+00 4.526259965467e-09-1.041647925137e+00
    4.600733518600e-07 8.056741557084e-03 6.301328539848e-06 5.153662744522e+03
    5.184000000000e+05 2.123415470123e-07 2.405427811724e+00 5.029141902924e-08
    9.721023649711e-01 2.615312500000e+02 6.732867063967e-01-8.152125283026e-09
    3.993023468312e-10 1.000000000000e+00 2.012000000000e+03 0.000000000000e+00
    2.400000000000e+00 0.000000000000e+00 5.587935447693e-09 1.500000000000e+01
    5.112060000000e+05 4.000000000000e+00
